{
  "type": "FeatureCollection",
  "features": [
    {
      "type": "Feature",
      "properties": {
        "norad_id": 66968,
        "name": "STARLINK-36152",
        "group": "last-30-days",
        "lat": -18.64433035245786,
        "lon": -45.95017733724224,
        "alt_km": 340.15893396454885,
        "timestamp": "2025-12-21T14:40:46.636248+00:00",
        "meta_object_name": "STARLINK-36152",
        "meta_object_id": "2025-288K",
        "meta_epoch": "2025-12-21T06:00:00.999648",
        "meta_mean_motion": 15.78205099,
        "meta_eccentricity": 0.00014559,
        "meta_inclination": 43.001,
        "meta_ra_of_asc_node": 115.0255,
        "meta_arg_of_pericenter": 268.4624,
        "meta_mean_anomaly": 42.9995,
        "meta_ephemeris_type": 0,
        "meta_classification_type": "U",
        "meta_norad_cat_id": 66968,
        "meta_element_set_no": 999,
        "meta_rev_at_epoch": 319,
        "meta_bstar": -0.0091399952,
        "meta_mean_motion_dot": -0.01431725,
        "meta_mean_motion_ddot": 0,
        "tle_line1": "1 66968U 25288K   25355.25001157 -.01431725  00000+0 -91400-2 0  9991",
        "tle_line2": "2 66968  43.0010 115.0255 0001455 268.4624  42.9995 15.78205099  3198"
      },
      "geometry": {
        "type": "Point",
        "coordinates": [
          -45.95017733724224,
          -18.64433035245786
        ]
      }
    },
    {
      "type": "Feature",
      "properties": {
        "norad_id": 66969,
        "name": "STARLINK-36149",
        "group": "last-30-days",
        "lat": -24.99748634613707,
        "lon": -37.180386227489564,
        "alt_km": 341.499126617663,
        "timestamp": "2025-12-21T14:40:46.636259+00:00",
        "meta_object_name": "STARLINK-36149",
        "meta_object_id": "2025-288L",
        "meta_epoch": "2025-12-21T06:00:00.999648",
        "meta_mean_motion": 15.77910911,
        "meta_eccentricity": 0.00014304,
        "meta_inclination": 43.001,
        "meta_ra_of_asc_node": 114.9987,
        "meta_arg_of_pericenter": 270.264,
        "meta_mean_anomaly": 51.956,
        "meta_ephemeris_type": 0,
        "meta_classification_type": "U",
        "meta_norad_cat_id": 66969,
        "meta_element_set_no": 999,
        "meta_rev_at_epoch": 319,
        "meta_bstar": -0.0096079156,
        "meta_mean_motion_dot": -0.0147868,
        "meta_mean_motion_ddot": 0,
        "tle_line1": "1 66969U 25288L   25355.25001157 -.01478680  00000+0 -96079-2 0  9990",
        "tle_line2": "2 66969  43.0010 114.9987 0001430 270.2640  51.9560 15.77910911  3194"
      },
      "geometry": {
        "type": "Point",
        "coordinates": [
          -37.180386227489564,
          -24.99748634613707
        ]
      }
    },
    {
      "type": "Feature",
      "properties": {
        "norad_id": 66970,
        "name": "STARLINK-35703",
        "group": "last-30-days",
        "lat": -29.62379358239886,
        "lon": -29.61983298231025,
        "alt_km": 342.4006099007893,
        "timestamp": "2025-12-21T14:40:46.636269+00:00",
        "meta_object_name": "STARLINK-35703",
        "meta_object_id": "2025-288M",
        "meta_epoch": "2025-12-21T06:00:00.999648",
        "meta_mean_motion": 15.77668978,
        "meta_eccentricity": 0.0001547,
        "meta_inclination": 43.0009,
        "meta_ra_of_asc_node": 114.9768,
        "meta_arg_of_pericenter": 268.1794,
        "meta_mean_anomaly": 62.5576,
        "meta_ephemeris_type": 0,
        "meta_classification_type": "U",
        "meta_norad_cat_id": 66970,
        "meta_element_set_no": 999,
        "meta_rev_at_epoch": 319,
        "meta_bstar": -0.010039017,
        "meta_mean_motion_dot": -0.01522154,
        "meta_mean_motion_ddot": 0,
        "tle_line1": "1 66970U 25288M   25355.25001157 -.01522154  00000+0 -10039-1 0  9999",
        "tle_line2": "2 66970  43.0009 114.9768 0001547 268.1794  62.5576 15.77668978  3194"
      },
      "geometry": {
        "type": "Point",
        "coordinates": [
          -29.61983298231025,
          -29.62379358239886
        ]
      }
    },
    {
      "type": "Feature",
      "properties": {
        "norad_id": 66971,
        "name": "STARLINK-35678",
        "group": "last-30-days",
        "lat": -19.84122212219651,
        "lon": -44.40017337469409,
        "alt_km": 340.0167137788867,
        "timestamp": "2025-12-21T14:40:46.636280+00:00",
        "meta_object_name": "STARLINK-35678",
        "meta_object_id": "2025-288N",
        "meta_epoch": "2025-12-21T06:00:00.999648",
        "meta_mean_motion": 15.78219122,
        "meta_eccentricity": 0.00017223,
        "meta_inclination": 43.001,
        "meta_ra_of_asc_node": 115.0213,
        "meta_arg_of_pericenter": 264.3051,
        "meta_mean_anomaly": 49.0361,
        "meta_ephemeris_type": 0,
        "meta_classification_type": "U",
        "meta_norad_cat_id": 66971,
        "meta_element_set_no": 999,
        "meta_rev_at_epoch": 319,
        "meta_bstar": -0.0091489134,
        "meta_mean_motion_dot": -0.01433945,
        "meta_mean_motion_ddot": 0,
        "tle_line1": "1 66971U 25288N   25355.25001157 -.01433945  00000+0 -91489-2 0  9998",
        "tle_line2": "2 66971  43.0010 115.0213 0001722 264.3051  49.0361 15.78219122  3199"
      },
      "geometry": {
        "type": "Point",
        "coordinates": [
          -44.40017337469409,
          -19.84122212219651
        ]
      }
    },
    {
      "type": "Feature",
      "properties": {
        "norad_id": 66972,
        "name": "STARLINK-34846",
        "group": "last-30-days",
        "lat": -21.195618838411885,
        "lon": -42.59594607524861,
        "alt_km": 340.39363115791184,
        "timestamp": "2025-12-21T14:40:46.636290+00:00",
        "meta_object_name": "STARLINK-34846",
        "meta_object_id": "2025-288P",
        "meta_epoch": "2025-12-21T06:00:00.999648",
        "meta_mean_motion": 15.78129567,
        "meta_eccentricity": 0.00017782,
        "meta_inclination": 43.0009,
        "meta_ra_of_asc_node": 115.0155,
        "meta_arg_of_pericenter": 265.471,
        "meta_mean_anomaly": 50.1695,
        "meta_ephemeris_type": 0,
        "meta_classification_type": "U",
        "meta_norad_cat_id": 66972,
        "meta_element_set_no": 999,
        "meta_rev_at_epoch": 319,
        "meta_bstar": -0.009321729,
        "meta_mean_motion_dot": -0.01452668,
        "meta_mean_motion_ddot": 0,
        "tle_line1": "1 66972U 25288P   25355.25001157 -.01452668  00000+0 -93217-2 0  9993",
        "tle_line2": "2 66972  43.0009 115.0155 0001778 265.4710  50.1695 15.78129567  3194"
      },
      "geometry": {
        "type": "Point",
        "coordinates": [
          -42.59594607524861,
          -21.195618838411885
        ]
      }
    },
    {
      "type": "Feature",
      "properties": {
        "norad_id": 66973,
        "name": "STARLINK-35778",
        "group": "last-30-days",
        "lat": -22.482635381512154,
        "lon": -40.82528935082093,
        "alt_km": 340.72508690842915,
        "timestamp": "2025-12-21T14:40:46.636301+00:00",
        "meta_object_name": "STARLINK-35778",
        "meta_object_id": "2025-288Q",
        "meta_epoch": "2025-12-21T06:00:00.999648",
        "meta_mean_motion": 15.78058781,
        "meta_eccentricity": 0.00017748,
        "meta_inclination": 43.0008,
        "meta_ra_of_asc_node": 115.01,
        "meta_arg_of_pericenter": 267.919,
        "meta_mean_anomaly": 49.9098,
        "meta_ephemeris_type": 0,
        "meta_classification_type": "U",
        "meta_norad_cat_id": 66973,
        "meta_element_set_no": 999,
        "meta_rev_at_epoch": 319,
        "meta_bstar": -0.009386801,
        "meta_mean_motion_dot": -0.01457468,
        "meta_mean_motion_ddot": 0,
        "tle_line1": "1 66973U 25288Q   25355.25001157 -.01457468  00000+0 -93868-2 0  9999",
        "tle_line2": "2 66973  43.0008 115.0100 0001774 267.9190  49.9098 15.78058781  3191"
      },
      "geometry": {
        "type": "Point",
        "coordinates": [
          -40.82528935082093,
          -22.482635381512154
        ]
      }
    },
    {
      "type": "Feature",
      "properties": {
        "norad_id": 66974,
        "name": "STARLINK-35780",
        "group": "last-30-days",
        "lat": -23.734059407727468,
        "lon": -39.04442268541549,
        "alt_km": 341.05891698264895,
        "timestamp": "2025-12-21T14:40:46.636310+00:00",
        "meta_object_name": "STARLINK-35780",
        "meta_object_id": "2025-288R",
        "meta_epoch": "2025-12-21T06:00:00.999648",
        "meta_mean_motion": 15.78000517,
        "meta_eccentricity": 0.00017012,
        "meta_inclination": 43.0011,
        "meta_ra_of_asc_node": 115.005,
        "meta_arg_of_pericenter": 270.4527,
        "meta_mean_anomaly": 49.5247,
        "meta_ephemeris_type": 0,
        "meta_classification_type": "U",
        "meta_norad_cat_id": 66974,
        "meta_element_set_no": 999,
        "meta_rev_at_epoch": 319,
        "meta_bstar": -0.0094935707,
        "meta_mean_motion_dot": -0.01468601,
        "meta_mean_motion_ddot": 0,
        "tle_line1": "1 66974U 25288R   25355.25001157 -.01468601  00000+0 -94936-2 0  9998",
        "tle_line2": "2 66974  43.0011 115.0050 0001701 270.4527  49.5247 15.78000517  3199"
      },
      "geometry": {
        "type": "Point",
        "coordinates": [
          -39.04442268541549,
          -23.734059407727468
        ]
      }
    }
  ]
}